{"type":"FeatureCollection","features":[{"type":"Feature","properties":{"nom":"Greifensee"},"geometry":{"type":"Polygon","coordinates":[[[8.65715,47.37257],[8.66452,47.37344],[8.67452,47.36434],[8.68087,47.36206],[8.68896,47.35298],[8.69031,47.34997],[8.6897,47.34382],[8.69152,47.34065],[8.69808,47.33711],[8.70794,47.33306],[8.70784,47.3288],[8.70611,47.32598],[8.70042,47.32588],[8.69823,47.3237],[8.69864,47.32101],[8.69202,47.3214],[8.69019,47.32426],[8.6905,47.32757],[8.68796,47.33059],[8.68339,47.33774],[8.67528,47.34587],[8.67031,47.34656],[8.6668,47.3488],[8.6643,47.35325],[8.66077,47.35439],[8.65705,47.3579],[8.65312,47.36236],[8.65276,47.36741],[8.65379,47.37103],[8.65715,47.37257]]]}},{"type":"Feature","properties":{"nom":"Zürichsee"},"geometry":{"type":"Polygon","coordinates":[[[8.54295,47.33554],[8.53635,47.3487],[8.53642,47.35217],[8.53708,47.36147],[8.53786,47.36446],[8.53953,47.36492],[8.54167,47.36553],[8.54406,47.36629],[8.54544,47.36391],[8.54728,47.36106],[8.55067,47.35314],[8.55682,47.35213],[8.56285,47.34576],[8.56634,47.34241],[8.56694,47.33752],[8.57062,47.33196],[8.57657,47.32196],[8.57719,47.3177],[8.58039,47.31183],[8.58645,47.30704],[8.59825,47.29398],[8.60937,47.28267],[8.61471,47.27772],[8.62877,47.27064],[8.66644,47.26094],[8.67796,47.25734],[8.68432,47.25585],[8.68943,47.25138],[8.7087,47.24533],[8.71377,47.23975],[8.73564,47.23352],[8.75954,47.2334],[8.77448,47.23465],[8.7875,47.2345],[8.79302,47.23775],[8.79635,47.23818],[8.80015,47.23861],[8.80485,47.23745],[8.81571,47.23637],[8.81814,47.22956],[8.81216,47.22711],[8.81678,47.22279],[8.82622,47.22189],[8.83296,47.21707],[8.8438,47.21552],[8.84881,47.21672],[8.84817,47.21941],[8.84989,47.22176],[8.85913,47.22228],[8.86542,47.21873],[8.87486,47.21782],[8.87764,47.21558],[8.88308,47.21551],[8.89523,47.21836],[8.90787,47.22198],[8.91641,47.22282],[8.91862,47.22547],[8.94651,47.22448],[8.94598,47.22244],[8.9416,47.21823],[8.94107,47.21587],[8.93103,47.21222],[8.92029,47.20888],[8.90937,47.2076],[8.89723,47.20508],[8.89164,47.20815],[8.8874,47.20899],[8.87929,47.20641],[8.87339,47.20711],[8.86174,47.20489],[8.85342,47.20326],[8.85181,47.19602],[8.8477,47.19276],[8.84058,47.1919],[8.83216,47.19531],[8.81774,47.1958],[8.81573,47.2004],[8.80514,47.20258],[8.79525,47.20427],[8.79845,47.20913],[8.80685,47.21376],[8.80886,47.21831],[8.80557,47.21945],[8.80074,47.21557],[8.79312,47.21345],[8.79081,47.20638],[8.77736,47.2078],[8.7728,47.20532],[8.76171,47.20656],[8.7568,47.20866],[8.73331,47.20593],[8.72138,47.20149],[8.71432,47.20299],[8.70117,47.21718],[8.69133,47.22154],[8.67801,47.22863],[8.66121,47.23922],[8.65615,47.24558],[8.65267,47.24893],[8.64469,47.25201],[8.64043,47.2519],[8.63612,47.2499],[8.62765,47.25219],[8.59263,47.26438],[8.58852,47.2712],[8.58433,47.27472],[8.58072,47.28296],[8.5722,47.29487],[8.56126,47.30413],[8.55587,47.31806],[8.54785,47.33171],[8.54295,47.33554]]]}},{"type":"Feature","properties":{"nom":"Thunersee"},"geometry":{"type":"Polygon","coordinates":[[[7.75197,46.65702],[7.74217,46.66288],[7.72486,46.66655],[7.70311,46.67355],[7.70455,46.68049],[7.70059,46.68412],[7.69334,46.68651],[7.68844,46.69204],[7.68026,46.69474],[7.66971,46.69508],[7.66293,46.69761],[7.65921,46.7033],[7.64377,46.71185],[7.64332,46.71674],[7.64052,46.71879],[7.63841,46.72022],[7.63396,46.71975],[7.62834,46.72229],[7.62884,46.73144],[7.63309,46.74026],[7.63122,46.74247],[7.63874,46.74625],[7.64834,46.74197],[7.65886,46.73343],[7.67009,46.72742],[7.67805,46.72598],[7.68692,46.71618],[7.70705,46.71093],[7.72437,46.70678],[7.7414,46.69396],[7.74743,46.6818],[7.75655,46.68035],[7.76336,46.68223],[7.77788,46.68218],[7.79149,46.68546],[7.79945,46.68448],[7.81044,46.68208],[7.82232,46.67337],[7.82747,46.67193],[7.82861,46.66893],[7.82601,46.66562],[7.82131,46.66217],[7.81474,46.66077],[7.80681,46.66521],[7.80213,46.66554],[7.79179,46.66084],[7.77351,46.6568],[7.75968,46.65558],[7.75197,46.65702]]]}},{"type":"Feature","properties":{"nom":"Brienzersee"},"geometry":{"type":"Polygon","coordinates":[[[7.88571,46.69175],[7.88384,46.69255],[7.88432,46.69412],[7.89585,46.69928],[7.90057,46.70337],[7.9102,46.70569],[7.92032,46.71117],[7.93398,46.71853],[7.93824,46.72277],[7.9446,46.72542],[7.96064,46.73576],[7.96675,46.737],[7.9717,46.73997],[7.97291,46.74344],[7.97975,46.74766],[7.99694,46.75437],[8.00585,46.75432],[8.01574,46.75743],[8.03281,46.75276],[8.04104,46.75414],[8.04756,46.75001],[8.0489,46.74416],[8.04723,46.74196],[8.04838,46.7399],[8.04603,46.73913],[8.03713,46.74028],[8.0235,46.73735],[8.01242,46.73204],[7.98959,46.72332],[7.98533,46.72003],[7.96627,46.71176],[7.95099,46.70725],[7.94369,46.70334],[7.93919,46.69816],[7.91848,46.68799],[7.89834,46.6887],[7.89718,46.69076],[7.89321,46.69204],[7.88571,46.69175]]]}},{"type":"Feature","properties":{"nom":"Bielersee"},"geometry":{"type":"Polygon","coordinates":[[[7.19964,47.08266],[7.18979,47.07034],[7.18627,47.06528],[7.18132,47.06353],[7.1773,47.06558],[7.17566,47.06431],[7.17544,47.061],[7.17474,47.05863],[7.17098,47.05578],[7.16346,47.0504],[7.15593,47.04786],[7.14956,47.04816],[7.14603,47.04704],[7.13897,47.04371],[7.1199,47.0383],[7.10953,47.03795],[7.10622,47.03921],[7.10171,47.04393],[7.10217,47.0455],[7.12216,47.05455],[7.13393,47.05995],[7.13885,47.06501],[7.1452,47.06929],[7.14848,47.07261],[7.14776,47.07497],[7.14115,47.077],[7.13903,47.07495],[7.13952,47.07306],[7.13319,47.06436],[7.11932,47.05754],[7.10827,47.05167],[7.09721,47.04691],[7.08896,47.04673],[7.08495,47.0464],[7.07953,47.0467],[7.07549,47.05126],[7.07335,47.0533],[7.07452,47.05504],[7.08299,47.05822],[7.08771,47.05808],[7.10724,47.06492],[7.11241,47.0692],[7.11473,47.07425],[7.13474,47.08267],[7.15452,47.09108],[7.17666,47.10075],[7.1863,47.10914],[7.19832,47.11484],[7.21103,47.1237],[7.21574,47.12655],[7.22281,47.13082],[7.23248,47.13384],[7.23509,47.13258],[7.23557,47.13053],[7.22803,47.12405],[7.22027,47.11583],[7.217,47.10731],[7.21229,47.10414],[7.20972,47.09909],[7.2036,47.09387],[7.20291,47.09008],[7.20434,47.08756],[7.20293,47.08519],[7.19964,47.08266]]]}},{"type":"Feature","properties":{"nom":"Lac de Neuchâtel"},"geometry":{"type":"Polygon","coordinates":[[[6.96903,47.0067],[6.98006,47.01195],[6.98738,47.01072],[6.99329,47.00854],[6.99686,47.00461],[7.01101,47.00261],[7.01406,47.00451],[7.01854,47.00453],[7.02115,47.00233],[7.02536,47.0055],[7.02983,47.00662],[7.0405,46.99893],[7.04977,46.98744],[7.04461,46.98459],[7.04086,46.98189],[7.03615,46.98093],[7.03899,46.9792],[7.03902,46.97573],[7.03552,46.9713],[7.02825,46.9667],[7.02546,46.96228],[6.9973,46.95034],[6.98135,46.94349],[6.97832,46.9408],[6.97881,46.9378],[6.96172,46.92748],[6.95446,46.92429],[6.95026,46.92049],[6.93504,46.91238],[6.92871,46.91046],[6.92802,46.90793],[6.92593,46.90555],[6.92287,46.9057],[6.90179,46.89693],[6.90182,46.89393],[6.8913,46.88725],[6.87289,46.87202],[6.86871,46.86742],[6.86403,46.86535],[6.85958,46.86343],[6.85796,46.86106],[6.8528,46.85993],[6.84603,46.85579],[6.83135,46.84483],[6.81801,46.84065],[6.81238,46.83999],[6.80771,46.83729],[6.79279,46.82726],[6.76719,46.80897],[6.75857,46.80293],[6.74989,46.80256],[6.74115,46.80692],[6.73647,46.80579],[6.73129,46.80718],[6.71768,46.80646],[6.67492,46.79136],[6.66981,46.78801],[6.66324,46.78765],[6.65974,46.78605],[6.64826,46.78518],[6.64327,46.78893],[6.63734,46.79315],[6.63659,46.79598],[6.63604,46.8015],[6.66026,46.81524],[6.67054,46.81925],[6.67663,46.82024],[6.67895,46.82246],[6.68362,46.82423],[6.68777,46.82993],[6.69198,46.83091],[6.69593,46.83377],[6.70272,46.8354],[6.71643,46.84716],[6.72648,46.85116],[6.73117,46.85167],[6.73977,46.85882],[6.74586,46.86028],[6.7538,46.86474],[6.75678,46.8706],[6.7579,46.8747],[6.76115,46.87835],[6.76577,46.88501],[6.77088,46.88993],[6.77907,46.89297],[6.7835,46.89631],[6.80562,46.91521],[6.83113,46.92655],[6.83726,46.92563],[6.8396,46.92722],[6.8393,46.93258],[6.84677,46.93862],[6.86063,46.94105],[6.87117,46.94552],[6.87135,46.95136],[6.87506,46.95643],[6.87374,46.96999],[6.88475,46.9762],[6.89461,46.97924],[6.90755,46.98025],[6.91341,46.98296],[6.91504,46.98501],[6.9256,46.98916],[6.92985,46.98824],[6.93548,46.99063],[6.94747,46.99352],[6.9491,46.99621],[6.95569,46.99624],[6.95991,46.99894],[6.96036,47.00162],[6.96903,47.0067]]]}},{"type":"Feature","properties":{"nom":"Baldeggersee"},"geometry":{"type":"Polygon","coordinates":[[[8.25018,47.21619],[8.25538,47.21568],[8.26106,47.21595],[8.26456,47.21261],[8.26975,47.19664],[8.27301,47.19315],[8.27578,47.18871],[8.27713,47.18444],[8.27589,47.18098],[8.27375,47.17989],[8.27395,47.17784],[8.27229,47.1777],[8.26924,47.17898],[8.26786,47.18151],[8.26433,47.1828],[8.25761,47.19121],[8.25741,47.19405],[8.25459,47.19517],[8.25206,47.19977],[8.24392,47.20866],[8.24418,47.21055],[8.24656,47.21132],[8.24541,47.21385],[8.24546,47.21685],[8.24736,47.21763],[8.25018,47.21619]]]}},{"type":"Feature","properties":{"nom":"Sempachersee"},"geometry":{"type":"Polygon","coordinates":[[[8.1298,47.14662],[8.12419,47.15075],[8.12235,47.15502],[8.12383,47.15959],[8.12221,47.16259],[8.12202,47.16591],[8.1249,47.16968],[8.12163,47.17269],[8.12496,47.17425],[8.13296,47.17152],[8.14444,47.16388],[8.15474,47.15577],[8.17398,47.14618],[8.18407,47.14091],[8.19105,47.13298],[8.19192,47.12777],[8.1888,47.12432],[8.1864,47.12149],[8.18353,47.11883],[8.17856,47.11855],[8.16965,47.12286],[8.14665,47.13373],[8.1298,47.14662]]]}},{"type":"Feature","properties":{"nom":"Hallwilersee"},"geometry":{"type":"Polygon","coordinates":[[[8.2283,47.27281],[8.23293,47.26553],[8.23359,47.26189],[8.22997,47.25703],[8.22729,47.25216],[8.23033,47.24977],[8.23031,47.24803],[8.22767,47.24616],[8.22436,47.24587],[8.21971,47.25221],[8.21325,47.26392],[8.21261,47.26835],[8.20956,47.27057],[8.20731,47.27848],[8.20663,47.28085],[8.2012,47.29839],[8.1985,47.30898],[8.20026,47.31591],[8.20288,47.317],[8.2022,47.31905],[8.20481,47.31935],[8.20858,47.31759],[8.2142,47.31266],[8.21652,47.30933],[8.2215,47.29321],[8.22815,47.27834],[8.22907,47.27628],[8.2283,47.27281]]]}},{"type":"Feature","properties":{"nom":"Zugersee"},"geometry":{"type":"Polygon","coordinates":[[[8.52208,47.08995],[8.52193,47.08254],[8.52627,47.07571],[8.52759,47.07081],[8.52566,47.06862],[8.51917,47.063],[8.51539,47.0624],[8.50985,47.06892],[8.50377,47.07135],[8.49467,47.07648],[8.49165,47.07919],[8.48837,47.08017],[8.47974,47.08561],[8.47108,47.08963],[8.46459,47.09537],[8.46533,47.09726],[8.47152,47.09988],[8.47441,47.1027],[8.47636,47.10615],[8.48157,47.10705],[8.48658,47.10968],[8.48851,47.11172],[8.48809,47.1144],[8.4834,47.11587],[8.47394,47.11516],[8.46716,47.11885],[8.46438,47.12156],[8.46455,47.13055],[8.47271,47.1371],[8.47394,47.13962],[8.47065,47.14075],[8.46565,47.13859],[8.45814,47.14133],[8.45778,47.14733],[8.46188,47.1514],[8.46363,47.15627],[8.46034,47.15772],[8.46157,47.15992],[8.45883,47.16515],[8.4558,47.16739],[8.45302,47.17041],[8.45403,47.17371],[8.46264,47.17884],[8.47569,47.18141],[8.48178,47.17835],[8.48244,47.17598],[8.48697,47.17752],[8.49523,47.17713],[8.49897,47.17457],[8.50226,47.17375],[8.50717,47.17086],[8.51165,47.17051],[8.51395,47.16749],[8.509,47.15602],[8.50919,47.15381],[8.50386,47.14723],[8.50459,47.1365],[8.50264,47.1332],[8.49905,47.13087],[8.49712,47.12915],[8.49708,47.12678],[8.49395,47.12413],[8.49459,47.12034],[8.49852,47.1162],[8.5026,47.10749],[8.50773,47.10444],[8.51187,47.09888],[8.51839,47.0944],[8.52208,47.08995]]]}},{"type":"Feature","properties":{"nom":"Vierwaldstättersee"},"geometry":{"type":"Polygon","coordinates":[[[8.31381,46.99849],[8.30642,47.0077],[8.31046,47.01003],[8.31826,47.01139],[8.32168,47.00395],[8.3301,47.00057],[8.34221,47.00553],[8.34067,47.01248],[8.33614,47.02356],[8.33978,47.02937],[8.33888,47.0319],[8.33422,47.03556],[8.32958,47.04017],[8.31909,47.0472],[8.31464,47.0496],[8.30973,47.05216],[8.31212,47.05388],[8.32439,47.0541],[8.33171,47.05436],[8.34336,47.0459],[8.35361,47.03841],[8.3547,47.03335],[8.36272,47.03329],[8.36866,47.03639],[8.38991,47.05121],[8.39682,47.05478],[8.40091,47.05932],[8.40973,47.06445],[8.41373,47.06363],[8.41681,47.06439],[8.4204,47.06736],[8.43507,47.08222],[8.4386,47.08187],[8.43951,47.07981],[8.43493,47.07449],[8.43028,47.06554],[8.43021,47.06207],[8.4271,47.05989],[8.42674,47.05295],[8.42291,47.04967],[8.4181,47.04466],[8.40359,47.03768],[8.39518,47.02923],[8.40173,47.02618],[8.40956,47.02927],[8.42063,47.02855],[8.43625,47.03157],[8.44423,47.02976],[8.45241,47.02559],[8.45755,47.02333],[8.46746,47.02356],[8.47417,47.01703],[8.48117,47.01366],[8.48473,47.00274],[8.47641,46.99918],[8.474,46.99637],[8.47608,46.9943],[8.48079,46.99378],[8.49322,46.99114],[8.50196,46.99217],[8.51825,46.99359],[8.53722,46.98821],[8.55067,46.98886],[8.55778,46.99132],[8.57327,46.99921],[8.58485,47.00099],[8.5893,46.99953],[8.58995,46.99684],[8.59274,46.99508],[8.60117,46.99278],[8.60824,46.99287],[8.60932,46.98844],[8.6114,46.98668],[8.61085,46.9829],[8.60905,46.97614],[8.61391,46.9611],[8.6196,46.95236],[8.61995,46.94699],[8.61018,46.93053],[8.61242,46.9253],[8.62122,46.91906],[8.62279,46.91525],[8.62104,46.9107],[8.6238,46.90798],[8.62415,46.90262],[8.61254,46.89863],[8.60536,46.89303],[8.60504,46.88909],[8.60011,46.88945],[8.59413,46.89567],[8.59255,46.90972],[8.59577,46.91742],[8.59676,46.91946],[8.58908,46.92348],[8.57983,46.93131],[8.58457,46.94357],[8.58882,46.9552],[8.59391,46.96193],[8.59472,46.96681],[8.59184,46.97521],[8.59672,46.98304],[8.59608,46.98621],[8.59117,46.98799],[8.58504,46.98774],[8.57412,46.9839],[8.5632,46.97975],[8.56008,46.97694],[8.54893,46.97342],[8.526,46.96938],[8.51341,46.96398],[8.49572,46.96256],[8.47976,46.96523],[8.47092,46.97099],[8.46694,46.97213],[8.44834,46.97246],[8.44296,46.9744],[8.43662,46.97524],[8.4258,46.97628],[8.42467,46.97897],[8.41906,46.98091],[8.41892,46.9866],[8.44097,46.99398],[8.45819,46.99493],[8.46178,46.9979],[8.46041,47.00012],[8.42817,47.00245],[8.42299,47.00265],[8.39451,47.00463],[8.38459,47.00345],[8.36928,47.00389],[8.36499,47.0014],[8.36375,46.99778],[8.35636,46.99263],[8.34867,46.98355],[8.33402,46.98082],[8.33027,46.98196],[8.32104,46.97966],[8.31351,46.98003],[8.31386,46.98681],[8.31743,46.98947],[8.31381,46.99849]]]}},{"type":"Feature","properties":{"nom":"Alpnachersee"},"geometry":{"type":"Polygon","coordinates":[[[8.30629,46.95579],[8.29917,46.95222],[8.29634,46.95224],[8.29613,46.95398],[8.29403,46.95462],[8.29237,46.954],[8.29146,46.95622],[8.2884,46.95624],[8.28648,46.95405],[8.2846,46.95406],[8.28108,46.95488],[8.28326,46.9588],[8.29012,46.9608],[8.29514,46.96518],[8.30035,46.96704],[8.30506,46.96748],[8.30886,46.96918],[8.31616,46.96897],[8.32232,46.9716],[8.32704,46.97188],[8.33083,46.97359],[8.33229,46.97594],[8.33071,46.98037],[8.33399,46.97924],[8.3379,46.97369],[8.33834,46.97148],[8.33641,46.96929],[8.32905,46.96572],[8.32548,46.96322],[8.30629,46.95579]]]}},{"type":"Feature","properties":{"nom":"Sihlsee"},"geometry":{"type":"Polygon","coordinates":[[[8.80945,47.08467],[8.80929,47.08767],[8.80627,47.08944],[8.7995,47.09252],[8.79331,47.09969],[8.78861,47.10054],[8.78655,47.10324],[8.78185,47.10409],[8.7803,47.10821],[8.78443,47.11258],[8.77908,47.11595],[8.77606,47.11804],[8.77551,47.12451],[8.76631,47.13456],[8.76337,47.1398],[8.75958,47.13921],[8.7582,47.14081],[8.76181,47.14329],[8.76334,47.14801],[8.76623,47.15002],[8.76997,47.14872],[8.77401,47.14946],[8.77806,47.15068],[8.77957,47.15444],[8.78381,47.15392],[8.78445,47.15107],[8.78772,47.14977],[8.7913,47.15084],[8.79124,47.14847],[8.78951,47.14565],[8.78755,47.14299],[8.79121,47.13822],[8.78926,47.13571],[8.79651,47.12332],[8.79557,47.11434],[8.79938,47.10609],[8.7995,47.10151],[8.80788,47.09715],[8.81422,47.0955],[8.81909,47.09213],[8.81637,47.08727],[8.81207,47.08559],[8.80945,47.08467]]]}},{"type":"Feature","properties":{"nom":"Sarnersee"},"geometry":{"type":"Polygon","coordinates":[[[8.19093,46.85596],[8.19405,46.86035],[8.19672,46.86649],[8.21704,46.87345],[8.22674,46.87796],[8.22821,46.88205],[8.23297,46.88581],[8.23419,46.88895],[8.23701,46.88846],[8.24007,46.88907],[8.24173,46.88953],[8.24312,46.88857],[8.24356,46.8862],[8.24324,46.881],[8.24108,46.87802],[8.24078,46.8736],[8.23224,46.86783],[8.22823,46.86722],[8.22275,46.86237],[8.21352,46.85786],[8.21252,46.8536],[8.20444,46.84735],[8.20184,46.84595],[8.20043,46.84627],[8.20093,46.848],[8.19976,46.8488],[8.19671,46.84913],[8.19486,46.85088],[8.19089,46.8528],[8.18973,46.85407],[8.19093,46.85596]]]}},{"type":"Feature","properties":{"nom":"Walensee"},"geometry":{"type":"Polygon","coordinates":[[[9.18918,47.13285],[9.20818,47.12893],[9.21527,47.12882],[9.25193,47.13014],[9.27125,47.12841],[9.27718,47.12926],[9.30079,47.12872],[9.30262,47.12696],[9.29936,47.12149],[9.29906,47.1196],[9.29875,47.11755],[9.2928,47.11623],[9.28493,47.11399],[9.27783,47.11363],[9.25621,47.11682],[9.24973,47.11392],[9.22228,47.1123],[9.22069,47.11437],[9.21578,47.11587],[9.20957,47.11376],[9.18864,47.11644],[9.16655,47.11993],[9.15625,47.12293],[9.14331,47.12438],[9.13701,47.12684],[9.12024,47.12709],[9.10706,47.12854],[9.09916,47.13308],[9.09898,47.13466],[9.10088,47.1351],[9.10582,47.1344],[9.10988,47.1356],[9.11329,47.13902],[9.1251,47.13901],[9.13189,47.13702],[9.14324,47.13701],[9.14529,47.13461],[9.1481,47.13394],[9.15098,47.13547],[9.15664,47.13507],[9.16083,47.13312],[9.18918,47.13285]]]}},{"type":"Feature","properties":{"nom":"Aegerisee"},"geometry":{"type":"Polygon","coordinates":[[[8.59838,47.13653],[8.60478,47.13726],[8.60801,47.13391],[8.61458,47.13164],[8.61886,47.13286],[8.62918,47.12975],[8.63358,47.12576],[8.63652,47.11974],[8.64231,47.11463],[8.64241,47.10879],[8.63947,47.10393],[8.63423,47.10209],[8.63047,47.10292],[8.62515,47.10755],[8.62505,47.1137],[8.62129,47.11485],[8.6117,47.11889],[8.60184,47.12167],[8.59195,47.12287],[8.59222,47.12445],[8.5977,47.12676],[8.59477,47.1331],[8.59008,47.13504],[8.58777,47.13743],[8.59086,47.13819],[8.59838,47.13653]]]}},{"type":"Feature","properties":{"nom":"Lac de la Gruyère"},"geometry":{"type":"Polygon","coordinates":[[[7.08999,46.70724],[7.097,46.70915],[7.09863,46.71184],[7.10191,46.71138],[7.10378,46.71264],[7.1054,46.71612],[7.11007,46.71803],[7.11336,46.71693],[7.10939,46.71424],[7.10825,46.70982],[7.09936,46.70774],[7.0982,46.706],[7.10034,46.70112],[7.10481,46.69813],[7.10482,46.69593],[7.11045,46.69436],[7.11119,46.68837],[7.11425,46.68696],[7.11729,46.68776],[7.12032,46.69045],[7.12196,46.68903],[7.12104,46.68714],[7.11801,46.6846],[7.11404,46.68286],[7.10841,46.68331],[7.10937,46.68],[7.10635,46.67589],[7.10307,46.67636],[7.09795,46.67145],[7.10197,46.66389],[7.09848,46.66104],[7.09896,46.65836],[7.09734,46.65552],[7.0981,46.64621],[7.10116,46.6437],[7.10168,46.63581],[7.10451,46.63282],[7.10504,46.62288],[7.1058,46.61342],[7.10346,46.61262],[7.09994,46.61498],[7.09644,46.61402],[7.09547,46.61875],[7.09192,46.62537],[7.09331,46.62774],[7.09073,46.62852],[7.09209,46.6342],[7.09087,46.6424],[7.09314,46.65345],[7.09029,46.65944],[7.09494,46.66576],[7.09399,46.6675],[7.08883,46.66874],[7.08674,46.66527],[7.08183,46.66478],[7.07924,46.66698],[7.08344,46.66888],[7.08623,46.67205],[7.08667,46.67694],[7.09459,46.68359],[7.09833,46.68471],[7.10019,46.68708],[7.10323,46.68772],[7.10321,46.69087],[7.10578,46.69277],[7.10366,46.6934],[7.0997,46.6907],[7.09757,46.69338],[7.09218,46.69399],[7.091,46.69588],[7.09167,46.70078],[7.09494,46.70205],[7.09492,46.70457],[7.09327,46.70599],[7.09,46.70535],[7.08999,46.70724]]]}},{"type":"Feature","properties":{"nom":"Murtensee"},"geometry":{"type":"Polygon","coordinates":[[[7.08442,46.91294],[7.06471,46.9053],[7.05483,46.90511],[7.04777,46.90604],[7.04045,46.9098],[7.03405,46.91593],[7.03284,46.92113],[7.03986,46.92541],[7.04899,46.93254],[7.05885,46.93589],[7.06352,46.94127],[7.09405,46.95099],[7.11261,46.95767],[7.12204,46.95643],[7.13245,46.94652],[7.13224,46.94273],[7.12052,46.93481],[7.11021,46.92737],[7.10059,46.92166],[7.09401,46.9207],[7.09024,46.92242],[7.0886,46.92131],[7.0898,46.91769],[7.08442,46.91294]]]}},{"type":"Feature","properties":{"nom":"Bodensee"},"geometry":{"type":"Polygon","coordinates":[[[9.12589,47.66643],[9.11655,47.66546],[9.09629,47.66607],[9.09183,47.66834],[9.09006,47.67294],[9.08247,47.67447],[9.07949,47.67072],[9.07377,47.67096],[9.07077,47.67431],[9.06575,47.67423],[9.04955,47.67493],[9.04376,47.67311],[9.02117,47.67595],[9.01543,47.67539],[9.00483,47.67223],[8.98353,47.66999],[8.97288,47.66508],[8.9711,47.661],[8.96095,47.65688],[8.94897,47.65498],[8.93171,47.65205],[8.92491,47.64756],[8.91658,47.6483],[8.9067,47.6448],[8.895,47.64431],[8.88323,47.64998],[8.86284,47.65496],[8.8598,47.65721],[8.86054,47.65799],[8.86103,47.65846],[8.86508,47.65841],[8.87528,47.65623],[8.89425,47.65189],[8.90315,47.65446],[8.91221,47.65435],[8.92383,47.6602],[8.93573,47.6591],[8.95849,47.67079],[8.96611,47.67022],[8.9719,47.67235],[8.97369,47.67643],[8.98259,47.67899],[8.99469,47.68435],[9.00227,47.6904],[9.00621,47.69476],[9.00559,47.69793],[8.99439,47.70675],[8.97256,47.71162],[8.95821,47.71938],[8.94588,47.72254],[8.94001,47.72624],[8.94039,47.73113],[8.94696,47.73514],[8.95944,47.73735],[8.97373,47.73542],[9.01388,47.71959],[9.01686,47.72349],[9.00695,47.72772],[8.99971,47.73334],[8.98902,47.73538],[8.98319,47.74035],[8.9871,47.74345],[8.99498,47.74303],[9.00222,47.73741],[9.02229,47.72925],[9.06746,47.71412],[9.10101,47.70244],[9.10793,47.69461],[9.10898,47.69018],[9.09986,47.68873],[9.08438,47.68974],[9.0734,47.69763],[9.06044,47.70349],[9.05114,47.70377],[9.04817,47.70823],[9.0422,47.70816],[9.04418,47.70277],[9.04123,47.69981],[9.044,47.69662],[9.04318,47.69347],[9.08154,47.68316],[9.09283,47.6852],[9.11266,47.68571],[9.11863,47.67821],[9.12412,47.67071],[9.13908,47.66844],[9.16161,47.67143],[9.20691,47.6627],[9.21777,47.66632],[9.20999,47.67622],[9.2114,47.68282],[9.20261,47.69116],[9.18807,47.69927],[9.19294,47.70204],[9.20156,47.70269],[9.20148,47.70743],[9.19221,47.70899],[9.18387,47.70217],[9.17965,47.7046],[9.18108,47.71168],[9.17892,47.71865],[9.17795,47.72561],[9.17346,47.73435],[9.16517,47.73668],[9.15719,47.74122],[9.15088,47.74557],[9.14929,47.74812],[9.14668,47.74863],[9.14256,47.74696],[9.13564,47.74721],[9.11217,47.76096],[9.09132,47.7671],[9.06684,47.77959],[9.04703,47.79674],[9.03054,47.80502],[9.0348,47.81158],[9.03939,47.8131],[9.03856,47.81721],[9.04312,47.81762],[9.05425,47.81368],[9.06146,47.81468],[9.07173,47.80634],[9.09458,47.79466],[9.10575,47.79245],[9.12738,47.78046],[9.13238,47.77234],[9.14324,47.76808],[9.15184,47.76796],[9.18161,47.7571],[9.19334,47.7503],[9.21043,47.74673],[9.22572,47.7394],[9.22636,47.72282],[9.2372,47.71161],[9.24934,47.70338],[9.28782,47.68368],[9.31372,47.67333],[9.32465,47.67205],[9.33211,47.66704],[9.34764,47.66079],[9.35692,47.66016],[9.37144,47.6656],[9.38527,47.66537],[9.39063,47.66812],[9.4211,47.66603],[9.43601,47.6563],[9.44391,47.65696],[9.4566,47.65185],[9.466,47.64805],[9.47206,47.65063],[9.48035,47.64891],[9.48832,47.65161],[9.5022,47.64631],[9.50463,47.64153],[9.51689,47.63169],[9.51771,47.62221],[9.52248,47.61613],[9.52674,47.61526],[9.52759,47.60641],[9.53412,47.59683],[9.54261,47.59446],[9.55091,47.58753],[9.56343,47.58478],[9.57342,47.58412],[9.59381,47.58737],[9.60087,47.58535],[9.60678,47.57245],[9.61686,47.56848],[9.62814,47.57032],[9.63939,47.566],[9.64463,47.56022],[9.65328,47.55627],[9.67119,47.55735],[9.6802,47.55638],[9.68448,47.55046],[9.677,47.54824],[9.67476,47.54592],[9.68034,47.54265],[9.68675,47.54221],[9.69206,47.54937],[9.71235,47.55055],[9.72071,47.54549],[9.72754,47.53826],[9.72972,47.53364],[9.74141,47.52867],[9.75056,47.52013],[9.7523,47.51078],[9.74877,47.50628],[9.74274,47.5045],[9.70912,47.50832],[9.69903,47.50615],[9.68915,47.50319],[9.68802,47.49343],[9.67807,47.48873],[9.67403,47.48881],[9.67278,47.49325],[9.66576,47.49591],[9.65882,47.4951],[9.65211,47.48813],[9.64783,47.48805],[9.63999,47.4942],[9.63806,47.49928],[9.64783,47.50541],[9.64148,47.50711],[9.63264,47.50065],[9.62262,47.49421],[9.60765,47.48881],[9.59832,47.48741],[9.5874,47.48793],[9.57176,47.49532],[9.56768,47.5006],[9.56102,47.50056],[9.55426,47.498],[9.54232,47.48497],[9.53005,47.4814],[9.51119,47.47953],[9.49715,47.47931],[9.48201,47.48163],[9.47637,47.48946],[9.46616,47.49627],[9.44946,47.50129],[9.43586,47.50658],[9.43606,47.51194],[9.43973,47.51471],[9.43751,47.51901],[9.42524,47.52175],[9.41689,47.52757],[9.40574,47.53518],[9.38679,47.54433],[9.383,47.55134],[9.38056,47.55627],[9.38386,47.5682],[9.3823,47.57123],[9.35739,47.58079],[9.33155,47.59116],[9.31379,47.60107],[9.30007,47.61076],[9.28099,47.61769],[9.26451,47.62363],[9.24712,47.63132],[9.21996,47.63931],[9.20582,47.64426],[9.19115,47.64795],[9.18163,47.65598],[9.17785,47.66424],[9.16243,47.66715],[9.15737,47.66581],[9.14807,47.66595],[9.1382,47.66309],[9.12589,47.66643]]]}},{"type":"Feature","properties":{"nom":"Lago di Lugano"},"geometry":{"type":"Polygon","coordinates":[[[9.02311,46.01622],[9.03157,46.02067],[9.0411,46.02196],[9.04835,46.02469],[9.05202,46.02338],[9.06728,46.02284],[9.08859,46.02348],[9.09862,46.02601],[9.10244,46.02975],[9.11347,46.03463],[9.11673,46.03521],[9.12288,46.03212],[9.12505,46.02736],[9.12219,46.02472],[9.1151,46.01993],[9.11159,46.01872],[9.10619,46.01596],[9.10542,46.01376],[9.09299,46.00827],[9.0856,46.00869],[9.08187,46.0078],[9.07544,46.00947],[9.06806,46.01037],[9.0586,46.01129],[9.05308,46.01216],[9.04889,46.01159],[9.04312,46.01214],[9.03679,46.00924],[9.02498,46.00088],[9.01101,45.99792],[9.00721,45.99435],[9.00068,45.99254],[8.98436,45.98804],[8.97728,45.98308],[8.97371,45.97935],[8.97403,45.97445],[8.96908,45.97105],[8.969,45.96805],[8.96678,45.96335],[8.96447,45.95517],[8.9594,45.95556],[8.95838,45.9521],[8.96159,45.95127],[8.96381,45.94792],[8.96268,45.94052],[8.96735,45.93399],[8.9728,45.93045],[8.97575,45.92851],[8.98241,45.91911],[8.98154,45.91281],[8.97953,45.907],[8.97671,45.9053],[8.97308,45.90756],[8.97184,45.92099],[8.96898,45.92624],[8.9599,45.93188],[8.95033,45.9369],[8.94709,45.93663],[8.93839,45.93107],[8.92391,45.91722],[8.91669,45.91479],[8.91062,45.91234],[8.90674,45.90561],[8.90391,45.90359],[8.89955,45.9046],[8.8973,45.90668],[8.90073,45.91405],[8.90017,45.91911],[8.89197,45.92347],[8.88935,45.92903],[8.88792,45.93615],[8.89106,45.94131],[8.89411,45.94317],[8.8942,45.94648],[8.8917,45.94825],[8.89014,45.95016],[8.8916,45.95314],[8.88934,45.95506],[8.87661,45.95428],[8.87412,45.95636],[8.86794,45.95865],[8.86135,45.96299],[8.86051,45.96648],[8.8629,45.96944],[8.86874,45.97174],[8.87104,45.97108],[8.87349,45.96773],[8.87066,45.9654],[8.87009,45.9613],[8.87882,45.9593],[8.88765,45.96108],[8.88841,45.96359],[8.88461,45.96853],[8.8849,45.97058],[8.89189,45.97286],[8.89498,45.97582],[8.89511,45.98055],[8.89368,45.98767],[8.89866,45.99234],[8.90752,45.99506],[8.91072,45.99344],[8.91157,45.99075],[8.91129,45.98902],[8.90882,45.98321],[8.90124,45.97652],[8.90048,45.97385],[8.89808,45.97057],[8.89803,45.96868],[8.8993,45.96456],[8.9027,45.95315],[8.90371,45.94778],[8.89715,45.93587],[8.89775,45.93223],[8.90661,45.92675],[8.91226,45.9221],[8.9169,45.92267],[8.92159,45.92529],[8.92937,45.93103],[8.93674,45.93866],[8.94037,45.94429],[8.94284,45.9501],[8.94704,45.95178],[8.95237,45.95218],[8.95455,45.95578],[8.94996,45.95679],[8.94943,45.96295],[8.951,45.9694],[8.95671,45.97532],[8.95796,45.97877],[8.95764,45.98367],[8.9573,45.98825],[8.95389,45.9905],[8.9468,45.99344],[8.95045,45.9997],[8.95215,46.00267],[8.95819,46.0037],[8.96162,46.00223],[8.96448,46.00503],[8.97025,46.00464],[8.97292,46.00097],[8.97682,45.9995],[8.98447,46.00034],[8.99337,46.00385],[9.00472,46.00448],[9.01278,46.01115],[9.02311,46.01622]]]}},{"type":"Feature","properties":{"nom":"Lago Maggiore"},"geometry":{"type":"Polygon","coordinates":[[[8.85341,46.16569],[8.8557,46.15572],[8.85676,46.15176],[8.84944,46.14696],[8.83967,46.14582],[8.83056,46.14325],[8.82215,46.14099],[8.81351,46.13888],[8.80556,46.1363],[8.79357,46.1295],[8.78324,46.12442],[8.77753,46.1188],[8.7676,46.11087],[8.75587,46.10486],[8.7366,46.10382],[8.73454,46.09485],[8.72041,46.08554],[8.7196,46.0805],[8.73045,46.06918],[8.73328,46.05179],[8.73115,46.03982],[8.7433,46.03495],[8.75069,46.02445],[8.74636,46.00793],[8.73222,45.99721],[8.71143,45.98861],[8.70963,45.98074],[8.69364,45.96893],[8.66067,45.95257],[8.66067,45.94232],[8.64977,45.94038],[8.63355,45.92809],[8.61633,45.92212],[8.61063,45.91492],[8.61976,45.90994],[8.61716,45.90697],[8.60193,45.9076],[8.59261,45.89302],[8.59907,45.88191],[8.61096,45.85497],[8.61873,45.8511],[8.62584,45.82783],[8.61906,45.82364],[8.60697,45.81904],[8.60554,45.80596],[8.59618,45.79959],[8.57755,45.80151],[8.56712,45.79862],[8.56211,45.77895],[8.58604,45.75552],[8.59596,45.74532],[8.59825,45.73393],[8.61842,45.72978],[8.62686,45.72622],[8.62679,45.72259],[8.61716,45.72459],[8.59763,45.72605],[8.58675,45.72332],[8.58062,45.73853],[8.56767,45.74671],[8.56177,45.76239],[8.54721,45.77152],[8.53944,45.79747],[8.5467,45.81492],[8.55707,45.81434],[8.56641,45.8204],[8.57489,45.84019],[8.56671,45.86852],[8.55495,45.88047],[8.52169,45.89089],[8.50575,45.91423],[8.48911,45.92559],[8.48368,45.93195],[8.49563,45.94052],[8.51202,45.93942],[8.54048,45.92999],[8.54885,45.92107],[8.56144,45.91527],[8.57432,45.93502],[8.61865,45.95476],[8.62823,45.97043],[8.65157,45.99054],[8.66373,46.00697],[8.67698,46.01961],[8.70022,46.02392],[8.71219,46.03105],[8.70798,46.0393],[8.70738,46.05303],[8.69579,46.07288],[8.69114,46.09234],[8.69692,46.1019],[8.71404,46.12017],[8.72157,46.13476],[8.73906,46.14844],[8.76679,46.1538],[8.78168,46.14589],[8.79165,46.14562],[8.7997,46.15215],[8.80514,46.1565],[8.80155,46.17058],[8.81038,46.17127],[8.82719,46.17516],[8.8324,46.1792],[8.84364,46.1737],[8.85341,46.16569]]]}},{"type":"Feature","properties":{"nom":"Lac de Joux"},"geometry":{"type":"Polygon","coordinates":[[[6.25488,46.61454],[6.25279,46.61373],[6.25043,46.61497],[6.24443,46.61096],[6.24159,46.61235],[6.24175,46.61582],[6.24661,46.61824],[6.25577,46.62749],[6.28582,46.64499],[6.32034,46.66237],[6.3254,46.667],[6.32891,46.66672],[6.33012,46.66499],[6.32393,46.65847],[6.32449,46.65405],[6.32267,46.65135],[6.31316,46.64732],[6.27735,46.62518],[6.27083,46.6237],[6.26503,46.62127],[6.26368,46.61889],[6.26017,46.61854],[6.25811,46.61647],[6.25488,46.61454]]]}},{"type":"Feature","properties":{"nom":"Lac Léman"},"geometry":{"type":"Polygon","coordinates":[[[6.53743,46.50732],[6.55891,46.50717],[6.57353,46.51312],[6.5793,46.51711],[6.58653,46.51763],[6.59214,46.51783],[6.60156,46.51254],[6.62007,46.50826],[6.63225,46.50598],[6.64185,46.50415],[6.66378,46.50494],[6.66707,46.5037],[6.67595,46.50312],[6.68953,46.50022],[6.70243,46.49573],[6.71279,46.48948],[6.72101,46.48559],[6.72988,46.48565],[6.73568,46.48852],[6.74268,46.48856],[6.75065,46.48577],[6.75866,46.47951],[6.77648,46.47346],[6.78628,46.47289],[6.79868,46.47059],[6.8134,46.46862],[6.83209,46.46683],[6.83472,46.46069],[6.83965,46.45835],[6.85203,46.45637],[6.8577,46.44945],[6.86402,46.44759],[6.87757,46.44577],[6.87878,46.44167],[6.89327,46.43843],[6.90072,46.43973],[6.90799,46.43471],[6.90827,46.43045],[6.91156,46.4281],[6.91714,46.42892],[6.9209,46.42594],[6.92328,46.42122],[6.93086,46.40847],[6.92486,46.40213],[6.92327,46.39755],[6.91863,46.39516],[6.90022,46.39602],[6.89441,46.3941],[6.8881,46.39581],[6.87716,46.39512],[6.86832,46.39398],[6.86038,46.39567],[6.85875,46.39472],[6.85737,46.39392],[6.85975,46.38841],[6.85699,46.3854],[6.85254,46.38743],[6.84717,46.38866],[6.83112,46.38637],[6.82412,46.38743],[6.8054,46.39427],[6.8005,46.39472],[6.79283,46.39341],[6.76011,46.40127],[6.75822,46.40315],[6.74981,46.40483],[6.73582,46.40538],[6.72553,46.40831],[6.69732,46.40876],[6.67729,46.40784],[6.67056,46.40575],[6.66404,46.40539],[6.65447,46.40627],[6.63675,46.40677],[6.61955,46.40397],[6.58416,46.4015],[6.54512,46.39473],[6.53764,46.39641],[6.53247,46.39905],[6.52097,46.40369],[6.51489,46.4049],[6.50862,46.4039],[6.50353,46.40149],[6.4924,46.3984],[6.48433,46.39329],[6.48274,46.39075],[6.48243,46.38191],[6.47742,46.37556],[6.43065,46.36016],[6.41342,46.36001],[6.40406,46.35062],[6.39826,46.34946],[6.39374,46.34232],[6.38913,46.34007],[6.3744,46.34324],[6.36104,46.34785],[6.35741,46.35444],[6.35221,46.35849],[6.35026,46.36258],[6.35111,46.367],[6.34336,46.37024],[6.32659,46.36992],[6.30338,46.36606],[6.30202,46.36415],[6.29027,46.35836],[6.28225,46.35228],[6.27786,46.3505],[6.27696,46.34907],[6.27749,46.34592],[6.2673,46.33303],[6.25678,46.32425],[6.25871,46.32111],[6.25018,46.30682],[6.24188,46.30358],[6.24269,46.29822],[6.23522,46.28915],[6.22855,46.28561],[6.21654,46.27175],[6.2097,46.26553],[6.19904,46.26399],[6.19407,46.25762],[6.19226,46.2453],[6.19381,46.23853],[6.17236,46.21194],[6.15419,46.20432],[6.14763,46.20661],[6.14923,46.20774],[6.15448,46.21158],[6.15415,46.21584],[6.15379,46.22104],[6.14995,46.22636],[6.15165,46.23301],[6.15368,46.2455],[6.15333,46.25054],[6.15834,46.25502],[6.16192,46.26105],[6.16676,46.26284],[6.17007,46.27014],[6.17179,46.27631],[6.16839,46.28243],[6.1711,46.29587],[6.17663,46.2983],[6.18231,46.30388],[6.18776,46.30994],[6.19599,46.31618],[6.20114,46.32523],[6.20781,46.33871],[6.20879,46.34709],[6.21261,46.35312],[6.22698,46.36637],[6.2334,46.37102],[6.24821,46.38616],[6.25879,46.39243],[6.26345,46.39263],[6.27422,46.39006],[6.27784,46.39531],[6.28292,46.39741],[6.28228,46.40545],[6.29003,46.41373],[6.29124,46.42274],[6.29725,46.42532],[6.30718,46.42953],[6.30946,46.43207],[6.31633,46.43814],[6.31996,46.44322],[6.33381,46.45046],[6.33974,46.45682],[6.34689,46.461],[6.35155,46.46104],[6.37832,46.46445],[6.38486,46.46419],[6.39146,46.46063],[6.39943,46.45881],[6.4078,46.4603],[6.40985,46.46285],[6.42094,46.46863],[6.43584,46.47049],[6.44885,46.47361],[6.45529,46.47855],[6.46021,46.47765],[6.46206,46.47877],[6.46241,46.48508],[6.47141,46.49068],[6.47935,46.49059],[6.48234,46.49298],[6.4871,46.50138],[6.49617,46.50351],[6.50487,46.51336],[6.51113,46.51594],[6.5233,46.5143],[6.53743,46.50732]]]}}]}